STARLINK-3080
1 29161C 21082AH  21325.19480135 -.00650464  00000-0 -11062-1 0  3259
2 29161  69.9999 295.9345 0003478 277.4816 152.8418 15.51912243    11
